[{"OBJECT_NAME":"STARLINK-3613","OBJECT_ID":"2022-017AU","EPOCH":"2026-03-09T22:25:49.149696","MEAN_MOTION":15.08832475,"ECCENTRICITY":0.00011341,"INCLINATION":53.2191,"RA_OF_ASC_NODE":328.2409,"ARG_OF_PERICENTER":93.9531,"MEAN_ANOMALY":266.1591,"EPHEMERIS_TYPE":0,"CLASSIFICATION_TYPE":"U","NORAD_CAT_ID":51810,"ELEMENT_SET_NO":999,"REV_AT_EPOCH":22411,"BSTAR":-2.117913e-6,"MEAN_MOTION_DOT":-3.21e-6,"MEAN_MOTION_DDOT":0},{"OBJECT_NAME":"SL-12 DEB","OBJECT_ID":"2007-052AH","EPOCH":"2026-03-09T02:03:32.852160","MEAN_MOTION":4.26076228,"ECCENTRICITY":0.56982189,"INCLINATION":65.0547,"RA_OF_ASC_NODE":312.1971,"ARG_OF_PERICENTER":215.2123,"MEAN_ANOMALY":88.7068,"EPHEMERIS_TYPE":0,"CLASSIFICATION_TYPE":"U","NORAD_CAT_ID":43541,"ELEMENT_SET_NO":999,"REV_AT_EPOCH":11938,"BSTAR":0.0014564876,"MEAN_MOTION_DOT":4.17e-6,"MEAN_MOTION_DDOT":0}]
